start=new Date('2023-05-12T00:00:00.000Z').valueOf();
sats=[{"ECCENTRICITY":"0.00041140","OBJECT_ID":"2022-084F","REV_AT_EPOCH":"4432","RA_OF_ASC_NODE":"193.2550","EPHEMERIS_TYPE":"0","SEMIMAJOR_AXIS":"6941.152","OBJECT_TYPE":"PAYLOAD","COUNTRY_CODE":"US","INCLINATION":"97.6566","GP_ID":"231638711","FILE":"3905576","MEAN_ANOMALY":"145.7899","DECAY_DATE":null,"RCS_SIZE":"LARGE","TIME_SYSTEM":"UTC","CENTER_NAME":"EARTH","TLE_LINE1":"1 53194U 22084F   23131.66558806  .00000694  00000-0  58664-4 0  9994","ARG_OF_PERICENTER":"214.3060","OBJECT_NAME":"STARLINK-4382","NORAD_CAT_ID":"53194","ELEMENT_SET_NO":"999","PERIOD":"95.920","LAUNCH_DATE":"2022-07-22","MEAN_ELEMENT_THEORY":"SGP4","CLASSIFICATION_TYPE":"U","PERIAPSIS":"560.161","SITE":"AFWTR","MEAN_MOTION_DDOT":"0.0000000000000","MEAN_MOTION":"15.01258347","TLE_LINE2":"2 53194  97.6566 193.2550 0004114 214.3060 145.7899 15.01258347 44326","REF_FRAME":"TEME","APOAPSIS":"565.873","BSTAR":"0.00005866400000","MEAN_MOTION_DOT":"0.00000694","EPOCH":"2023-05-11T15:58:26.808384"},{"ELEMENT_SET_NO":"999","NORAD_CAT_ID":"53195","SITE":"AFWTR","PERIAPSIS":"561.017","MEAN_MOTION_DDOT":"0.0000000000000","CLASSIFICATION_TYPE":"U","MEAN_ELEMENT_THEORY":"SGP4","LAUNCH_DATE":"2022-07-22","PERIOD":"95.920","REF_FRAME":"TEME","APOAPSIS":"565.029","MEAN_MOTION":"15.01256537","TLE_LINE2":"2 53195  97.6579 193.3201 0002890 206.5497 153.5580 15.01256537 45000","EPOCH":"2023-05-11T17:26:47.122656","BSTAR":"0.00013174000000","MEAN_MOTION_DOT":"0.00001633","REV_AT_EPOCH":"4500","OBJECT_ID":"2022-084G","ECCENTRICITY":"0.00028900","MEAN_ANOMALY":"153.5580","DECAY_DATE":null,"RCS_SIZE":"LARGE","GP_ID":"231637459","FILE":"3905576","COUNTRY_CODE":"US","INCLINATION":"97.6579","RA_OF_ASC_NODE":"193.3201","EPHEMERIS_TYPE":"0","SEMIMAJOR_AXIS":"6941.158","OBJECT_TYPE":"PAYLOAD","CENTER_NAME":"EARTH","TIME_SYSTEM":"UTC","OBJECT_NAME":"STARLINK-4404","ARG_OF_PERICENTER":"206.5497","TLE_LINE1":"1 53195U 22084G   23131.72693429  .00001633  00000-0  13174-3 0  9993"},{"CENTER_NAME":"EARTH","TIME_SYSTEM":"UTC","ARG_OF_PERICENTER":"139.4394","OBJECT_NAME":"STARLINK-4407","TLE_LINE1":"1 53196U 22084H   23131.72878954  .00000858  00000-0  71397-4 0  9992","ECCENTRICITY":"0.00013430","OBJECT_ID":"2022-084H","REV_AT_EPOCH":"4499","FILE":"3905576","GP_ID":"231637709","RCS_SIZE":"LARGE","DECAY_DATE":null,"MEAN_ANOMALY":"220.6931","OBJECT_TYPE":"PAYLOAD","RA_OF_ASC_NODE":"193.3121","EPHEMERIS_TYPE":"0","SEMIMAJOR_AXIS":"6941.156","INCLINATION":"97.6543","COUNTRY_CODE":"US","APOAPSIS":"563.953","REF_FRAME":"TEME","TLE_LINE2":"2 53196  97.6543 193.3121 0001343 139.4394 220.6931 15.01257113 44999","MEAN_MOTION":"15.01257113","EPOCH":"2023-05-11T17:29:27.416256","MEAN_MOTION_DOT":"0.00000858","BSTAR":"0.00007139700000","ELEMENT_SET_NO":"999","NORAD_CAT_ID":"53196","CLASSIFICATION_TYPE":"U","MEAN_MOTION_DDOT":"0.0000000000000","SITE":"AFWTR","PERIAPSIS":"562.089","LAUNCH_DATE":"2022-07-22","PERIOD":"95.920","MEAN_ELEMENT_THEORY":"SGP4"},{"NORAD_CAT_ID":"53197","ELEMENT_SET_NO":"999","MEAN_ELEMENT_THEORY":"SGP4","LAUNCH_DATE":"2022-07-22","PERIOD":"95.922","MEAN_MOTION_DDOT":"0.0000000000000","SITE":"AFWTR","PERIAPSIS":"561.372","CLASSIFICATION_TYPE":"U","TLE_LINE2":"2 53197  97.6566 193.3152 0002512 213.2929 146.8138 15.01226343 44330","MEAN_MOTION":"15.01226343","REF_FRAME":"TEME","APOAPSIS":"564.859","MEAN_MOTION_DOT":"0.00005465","BSTAR":"0.00043008000000","EPOCH":"2023-05-11T17:21:06.797376","REV_AT_EPOCH":"4433","OBJECT_ID":"2022-084J","ECCENTRICITY":"0.00025120","INCLINATION":"97.6566","COUNTRY_CODE":"US","OBJECT_TYPE":"PAYLOAD","EPHEMERIS_TYPE":"0","SEMIMAJOR_AXIS":"6941.251","RA_OF_ASC_NODE":"193.3152","RCS_SIZE":"LARGE","DECAY_DATE":null,"MEAN_ANOMALY":"146.8138","FILE":"3905576","GP_ID":"231638461","TIME_SYSTEM":"UTC","CENTER_NAME":"EARTH","TLE_LINE1":"1 53197U 22084J   23131.72299534  .00005465  00000-0  43008-3 0  9990","OBJECT_NAME":"STARLINK-4403","ARG_OF_PERICENTER":"213.2929"},{"REV_AT_EPOCH":"4499","ECCENTRICITY":"0.00015130","OBJECT_ID":"2022-084K","COUNTRY_CODE":"US","INCLINATION":"97.6583","EPHEMERIS_TYPE":"0","RA_OF_ASC_NODE":"193.3179","SEMIMAJOR_AXIS":"6941.162","OBJECT_TYPE":"PAYLOAD","DECAY_DATE":null,"MEAN_ANOMALY":"179.8437","RCS_SIZE":"LARGE","GP_ID":"231638212","FILE":"3905576","TIME_SYSTEM":"UTC","CENTER_NAME":"EARTH","TLE_LINE1":"1 53198U 22084K   23131.72669520  .00001002  00000-0  82573-4 0  9991","OBJECT_NAME":"STARLINK-4385","ARG_OF_PERICENTER":"180.2787","NORAD_CAT_ID":"53198","ELEMENT_SET_NO":"999","MEAN_ELEMENT_THEORY":"SGP4","PERIOD":"95.920","LAUNCH_DATE":"2022-07-22","SITE":"AFWTR","PERIAPSIS":"561.977","MEAN_MOTION_DDOT":"0.0000000000000","CLASSIFICATION_TYPE":"U","MEAN_MOTION":"15.01255085","TLE_LINE2":"2 53198  97.6583 193.3179 0001513 180.2787 179.8437 15.01255085 44999","APOAPSIS":"564.077","REF_FRAME":"TEME","BSTAR":"0.00008257300000","MEAN_MOTION_DOT":"0.00001002","EPOCH":"2023-05-11T17:26:26.465280"},{"COUNTRY_CODE":"US","INCLINATION":"97.6583","RA_OF_ASC_NODE":"193.3212","EPHEMERIS_TYPE":"0","SEMIMAJOR_AXIS":"6941.167","OBJECT_TYPE":"PAYLOAD","DECAY_DATE":null,"MEAN_ANOMALY":"140.8434","RCS_SIZE":"LARGE","GP_ID":"231636961","FILE":"3905576","REV_AT_EPOCH":"4433","OBJECT_ID":"2022-084L","ECCENTRICITY":"0.00022340","TLE_LINE1":"1 53199U 22084L   23131.72113639  .00001657  00000-0  13357-3 0  9996","OBJECT_NAME":"STARLINK-4395","ARG_OF_PERICENTER":"219.2629","TIME_SYSTEM":"UTC","CENTER_NAME":"EARTH","MEAN_ELEMENT_THEORY":"SGP4","LAUNCH_DATE":"2022-07-22","PERIOD":"95.920","SITE":"AFWTR","PERIAPSIS":"561.481","MEAN_MOTION_DDOT":"0.0000000000000","CLASSIFICATION_TYPE":"U","NORAD_CAT_ID":"53199","ELEMENT_SET_NO":"999","BSTAR":"0.00013357000000","MEAN_MOTION_DOT":"0.00001657","EPOCH":"2023-05-11T17:18:26.184096","MEAN_MOTION":"15.01253536","TLE_LINE2":"2 53199  97.6583 193.3212 0002234 219.2629 140.8434 15.01253536 44339","REF_FRAME":"TEME","APOAPSIS":"564.582"},{"OBJECT_ID":"2022-084M","ECCENTRICITY":"0.00024920","REV_AT_EPOCH":"4499","GP_ID":"231637210","FILE":"3905576","DECAY_DATE":null,"MEAN_ANOMALY":"152.1702","RCS_SIZE":"LARGE","EPHEMERIS_TYPE":"0","SEMIMAJOR_AXIS":"6941.163","RA_OF_ASC_NODE":"193.3207","OBJECT_TYPE":"PAYLOAD","COUNTRY_CODE":"US","INCLINATION":"97.6590","CENTER_NAME":"EARTH","TIME_SYSTEM":"UTC","ARG_OF_PERICENTER":"207.9389","OBJECT_NAME":"STARLINK-4417","TLE_LINE1":"1 53200U 22084M   23131.72483834  .00001224  00000-0  99906-4 0  9991","ELEMENT_SET_NO":"999","NORAD_CAT_ID":"53200","CLASSIFICATION_TYPE":"U","SITE":"AFWTR","PERIAPSIS":"561.298","MEAN_MOTION_DDOT":"0.0000000000000","LAUNCH_DATE":"2022-07-22","PERIOD":"95.920","MEAN_ELEMENT_THEORY":"SGP4","REF_FRAME":"TEME","APOAPSIS":"564.758","MEAN_MOTION":"15.01254697","TLE_LINE2":"2 53200  97.6590 193.3207 0002492 207.9389 152.1702 15.01254697 44992","EPOCH":"2023-05-11T17:23:46.032576","BSTAR":"0.00009990600000","MEAN_MOTION_DOT":"0.00001224"},{"CLASSIFICATION_TYPE":"U","MEAN_MOTION_DDOT":"0.0000000000000","SITE":"AFWTR","PERIAPSIS":"562.141","PERIOD":"95.920","LAUNCH_DATE":"2022-07-22","MEAN_ELEMENT_THEORY":"SGP4","ELEMENT_SET_NO":"999","NORAD_CAT_ID":"53201","EPOCH":"2023-05-11T22:01:02.513280","MEAN_MOTION_DOT":"0.00000752","BSTAR":"0.00006316500000","APOAPSIS":"563.905","REF_FRAME":"TEME","MEAN_MOTION":"15.01256384","TLE_LINE2":"2 53201  97.6581 193.5163 0001270 223.2192 136.8933 15.01256384 44363","FILE":"3905576","GP_ID":"231637962","RCS_SIZE":"LARGE","DECAY_DATE":null,"MEAN_ANOMALY":"136.8933","OBJECT_TYPE":"PAYLOAD","SEMIMAJOR_AXIS":"6941.158","RA_OF_ASC_NODE":"193.5163","EPHEMERIS_TYPE":"0","INCLINATION":"97.6581","COUNTRY_CODE":"US","ECCENTRICITY":"0.00012700","OBJECT_ID":"2022-084N","REV_AT_EPOCH":"4436","ARG_OF_PERICENTER":"223.2192","OBJECT_NAME":"STARLINK-4405","TLE_LINE1":"1 53201U 22084N   23131.91739020  .00000752  00000-0  63165-4 0  9997","CENTER_NAME":"EARTH","TIME_SYSTEM":"UTC"},{"TIME_SYSTEM":"UTC","CENTER_NAME":"EARTH","TLE_LINE1":"1 53202U 22084P   23131.66791832 -.00000456  00000-0 -31611-4 0  9993","ARG_OF_PERICENTER":"217.6259","OBJECT_NAME":"STARLINK-4411","OBJECT_ID":"2022-084P","ECCENTRICITY":"0.00008970","REV_AT_EPOCH":"4433","OBJECT_TYPE":"PAYLOAD","EPHEMERIS_TYPE":"0","SEMIMAJOR_AXIS":"6943.647","RA_OF_ASC_NODE":"193.3928","INCLINATION":"97.6554","COUNTRY_CODE":"US","FILE":"3905576","GP_ID":"231638712","RCS_SIZE":"MEDIUM","DECAY_DATE":null,"MEAN_ANOMALY":"142.4902","MEAN_MOTION":"15.00449320","TLE_LINE2":"2 53202  97.6554 193.3928 0000897 217.6259 142.4902 15.00449320 44335","APOAPSIS":"566.135","REF_FRAME":"TEME","MEAN_MOTION_DOT":"-0.00000456","BSTAR":"-0.00003161100000","EPOCH":"2023-05-11T16:01:48.142848","NORAD_CAT_ID":"53202","ELEMENT_SET_NO":"999","PERIOD":"95.971","LAUNCH_DATE":"2022-07-22","MEAN_ELEMENT_THEORY":"SGP4","CLASSIFICATION_TYPE":"U","MEAN_MOTION_DDOT":"0.0000000000000","SITE":"AFWTR","PERIAPSIS":"564.889"},{"TLE_LINE1":"1 53203U 22084Q   23131.91370111  .00000340  00000-0  31074-4 0  9998","ARG_OF_PERICENTER":"107.8979","OBJECT_NAME":"STARLINK-4409","TIME_SYSTEM":"UTC","CENTER_NAME":"EARTH","OBJECT_TYPE":"PAYLOAD","SEMIMAJOR_AXIS":"6941.175","EPHEMERIS_TYPE":"0","RA_OF_ASC_NODE":"193.5147","INCLINATION":"97.6580","COUNTRY_CODE":"US","FILE":"3905576","GP_ID":"231637460","RCS_SIZE":"LARGE","DECAY_DATE":null,"MEAN_ANOMALY":"252.2442","OBJECT_ID":"2022-084Q","ECCENTRICITY":"0.00018030","REV_AT_EPOCH":"4436","MEAN_MOTION_DOT":"0.00000340","BSTAR":"0.00003107400000","EPOCH":"2023-05-11T21:55:43.775904","TLE_LINE2":"2 53203  97.6580 193.5147 0001803 107.8979 252.2442 15.01250815 44369","MEAN_MOTION":"15.01250815","APOAPSIS":"564.292","REF_FRAME":"TEME","LAUNCH_DATE":"2022-07-22","PERIOD":"95.920","MEAN_ELEMENT_THEORY":"SGP4","CLASSIFICATION_TYPE":"U","MEAN_MOTION_DDOT":"0.0000000000000","SITE":"AFWTR","PERIAPSIS":"561.789","NORAD_CAT_ID":"53203","ELEMENT_SET_NO":"999"}];
